[{"OBJECT_NAME":"CENTISPACE-1 S7","OBJECT_ID":"2025-007B","EPOCH":"2026-03-09T21:41:40.317504","MEAN_MOTION":13.83163062,"ECCENTRICITY":0.00097398,"INCLINATION":54.9754,"RA_OF_ASC_NODE":279.2765,"ARG_OF_PERICENTER":301.0996,"MEAN_ANOMALY":58.9005,"EPHEMERIS_TYPE":0,"CLASSIFICATION_TYPE":"U","NORAD_CAT_ID":62576,"ELEMENT_SET_NO":999,"REV_AT_EPOCH":6100,"BSTAR":0.00010048958,"MEAN_MOTION_DOT":-3.1e-7,"MEAN_MOTION_DDOT":0},{"OBJECT_NAME":"COSMOS 516","OBJECT_ID":"1972-066A","EPOCH":"2026-03-09T09:37:18.640416","MEAN_MOTION":13.77807707,"ECCENTRICITY":0.00569463,"INCLINATION":64.8091,"RA_OF_ASC_NODE":87.8017,"ARG_OF_PERICENTER":134.2292,"MEAN_ANOMALY":226.346,"EPHEMERIS_TYPE":0,"CLASSIFICATION_TYPE":"U","NORAD_CAT_ID":6154,"ELEMENT_SET_NO":999,"REV_AT_EPOCH":69417,"BSTAR":1.6509786e-5,"MEAN_MOTION_DOT":-7.2e-7,"MEAN_MOTION_DDOT":0}]
